[{"OBJECT_NAME":"SIRION PATHFINDER-2","OBJECT_ID":"2018-099B","EPOCH":"2026-04-05T16:31:37.153344","MEAN_MOTION":15.13890526,"ECCENTRICITY":0.0008916,"INCLINATION":97.4329,"RA_OF_ASC_NODE":146.4762,"ARG_OF_PERICENTER":181.2614,"MEAN_ANOMALY":178.8597,"EPHEMERIS_TYPE":0,"CLASSIFICATION_TYPE":"U","NORAD_CAT_ID":43759,"ELEMENT_SET_NO":999,"REV_AT_EPOCH":40165,"BSTAR":0.00042092,"MEAN_MOTION_DOT":7.563e-5,"MEAN_MOTION_DDOT":0},{"OBJECT_NAME":"AISTECHSAT 2","OBJECT_ID":"2018-099L","EPOCH":"2026-04-05T16:52:26.011776","MEAN_MOTION":15.1472151,"ECCENTRICITY":0.0005005,"INCLINATION":97.4369,"RA_OF_ASC_NODE":145.3339,"ARG_OF_PERICENTER":172.0984,"MEAN_ANOMALY":188.0328,"EPHEMERIS_TYPE":0,"CLASSIFICATION_TYPE":"U","NORAD_CAT_ID":43768,"ELEMENT_SET_NO":999,"REV_AT_EPOCH":40130,"BSTAR":0.00037785,"MEAN_MOTION_DOT":6.938e-5,"MEAN_MOTION_DDOT":0},{"OBJECT_NAME":"FOX-1CLIFF (AO-95)","OBJECT_ID":"2018-099N","EPOCH":"2026-04-05T14:46:08.851008","MEAN_MOTION":15.25181511,"ECCENTRICITY":0.0007818,"INCLINATION":97.4449,"RA_OF_ASC_NODE":156.1924,"ARG_OF_PERICENTER":236.0283,"MEAN_ANOMALY":124.0212,"EPHEMERIS_TYPE":0,"CLASSIFICATION_TYPE":"U","NORAD_CAT_ID":43770,"ELEMENT_SET_NO":999,"REV_AT_EPOCH":40215,"BSTAR":0.0005632,"MEAN_MOTION_DOT":0.00014083,"MEAN_MOTION_DDOT":0},{"OBJECT_NAME":"2018-099Q","OBJECT_ID":"2018-099Q","EPOCH":"2026-04-05T10:48:21.882528","MEAN_MOTION":15.63746231,"ECCENTRICITY":0.00011481,"INCLINATION":97.4247,"RA_OF_ASC_NODE":172.0861,"ARG_OF_PERICENTER":180.8447,"MEAN_ANOMALY":179.281,"EPHEMERIS_TYPE":0,"CLASSIFICATION_TYPE":"U","NORAD_CAT_ID":43772,"ELEMENT_SET_NO":999,"REV_AT_EPOCH":40322,"BSTAR":0.0015270323,"MEAN_MOTION_DOT":0.00144676,"MEAN_MOTION_DDOT":0},{"OBJECT_NAME":"RANGE-A","OBJECT_ID":"2018-099R","EPOCH":"2026-04-05T15:07:28.326144","MEAN_MOTION":15.12776274,"ECCENTRICITY":0.0009154,"INCLINATION":97.4043,"RA_OF_ASC_NODE":140.3357,"ARG_OF_PERICENTER":231.9344,"MEAN_ANOMALY":128.1062,"EPHEMERIS_TYPE":0,"CLASSIFICATION_TYPE":"U","NORAD_CAT_ID":43773,"ELEMENT_SET_NO":999,"REV_AT_EPOCH":40152,"BSTAR":0.00032988,"MEAN_MOTION_DOT":5.73e-5,"MEAN_MOTION_DDOT":0},{"OBJECT_NAME":"SNUSAT-2","OBJECT_ID":"2018-099AA","EPOCH":"2026-04-05T15:36:07.656768","MEAN_MOTION":15.20734203,"ECCENTRICITY":0.001066,"INCLINATION":97.4134,"RA_OF_ASC_NODE":150.1815,"ARG_OF_PERICENTER":181.6844,"MEAN_ANOMALY":178.4358,"EPHEMERIS_TYPE":0,"CLASSIFICATION_TYPE":"U","NORAD_CAT_ID":43782,"ELEMENT_SET_NO":999,"REV_AT_EPOCH":40200,"BSTAR":0.00048826,"MEAN_MOTION_DOT":0.00010697,"MEAN_MOTION_DDOT":0},{"OBJECT_NAME":"SNUGLITE","OBJECT_ID":"2018-099AC","EPOCH":"2026-04-05T16:52:31.436832","MEAN_MOTION":15.2562706,"ECCENTRICITY":0.0003499,"INCLINATION":97.3939,"RA_OF_ASC_NODE":150.7553,"ARG_OF_PERICENTER":158.5885,"MEAN_ANOMALY":201.55,"EPHEMERIS_TYPE":0,"CLASSIFICATION_TYPE":"U","NORAD_CAT_ID":43784,"ELEMENT_SET_NO":999,"REV_AT_EPOCH":40226,"BSTAR":0.00062409,"MEAN_MOTION_DOT":0.00015817,"MEAN_MOTION_DDOT":0},{"OBJECT_NAME":"ITASAT","OBJECT_ID":"2018-099AE","EPOCH":"2026-04-05T16:06:15.009120","MEAN_MOTION":15.18145457,"ECCENTRICITY":0.0011391,"INCLINATION":97.4106,"RA_OF_ASC_NODE":148.6514,"ARG_OF_PERICENTER":241.1476,"MEAN_ANOMALY":118.8615,"EPHEMERIS_TYPE":0,"CLASSIFICATION_TYPE":"U","NORAD_CAT_ID":43786,"ELEMENT_SET_NO":999,"REV_AT_EPOCH":40190,"BSTAR":0.00043378,"MEAN_MOTION_DOT":8.808e-5,"MEAN_MOTION_DDOT":0},{"OBJECT_NAME":"EAGLET-I","OBJECT_ID":"2018-099AJ","EPOCH":"2026-04-05T14:49:14.748384","MEAN_MOTION":15.12395461,"ECCENTRICITY":0.0010092,"INCLINATION":97.4308,"RA_OF_ASC_NODE":147.2089,"ARG_OF_PERICENTER":231.186,"MEAN_ANOMALY":128.8471,"EPHEMERIS_TYPE":0,"CLASSIFICATION_TYPE":"U","NORAD_CAT_ID":43790,"ELEMENT_SET_NO":999,"REV_AT_EPOCH":40136,"BSTAR":0.00035917,"MEAN_MOTION_DOT":6.179e-5,"MEAN_MOTION_DDOT":0},{"OBJECT_NAME":"ESEO","OBJECT_ID":"2018-099AL","EPOCH":"2026-04-05T20:48:44.285472","MEAN_MOTION":15.04021845,"ECCENTRICITY":0.00114,"INCLINATION":97.4037,"RA_OF_ASC_NODE":136.3329,"ARG_OF_PERICENTER":215.6553,"MEAN_ANOMALY":144.3913,"EPHEMERIS_TYPE":0,"CLASSIFICATION_TYPE":"U","NORAD_CAT_ID":43792,"ELEMENT_SET_NO":999,"REV_AT_EPOCH":40093,"BSTAR":0.0002121,"MEAN_MOTION_DOT":2.877e-5,"MEAN_MOTION_DDOT":0},{"OBJECT_NAME":"THEA","OBJECT_ID":"2018-099AQ","EPOCH":"2026-04-05T17:15:58.731264","MEAN_MOTION":15.32619652,"ECCENTRICITY":0.0008285,"INCLINATION":97.4494,"RA_OF_ASC_NODE":164.8256,"ARG_OF_PERICENTER":173.502,"MEAN_ANOMALY":186.6331,"EPHEMERIS_TYPE":0,"CLASSIFICATION_TYPE":"U","NORAD_CAT_ID":43796,"ELEMENT_SET_NO":999,"REV_AT_EPOCH":40158,"BSTAR":0.00073035,"MEAN_MOTION_DOT":0.00022993,"MEAN_MOTION_DDOT":0},{"OBJECT_NAME":"ASTROCAST 0.1","OBJECT_ID":"2018-099AS","EPOCH":"2026-04-05T18:13:44.708736","MEAN_MOTION":15.45052425,"ECCENTRICITY":0.0006445,"INCLINATION":97.4414,"RA_OF_ASC_NODE":172.2489,"ARG_OF_PERICENTER":123.7468,"MEAN_ANOMALY":236.4395,"EPHEMERIS_TYPE":0,"CLASSIFICATION_TYPE":"U","NORAD_CAT_ID":43798,"ELEMENT_SET_NO":999,"REV_AT_EPOCH":40323,"BSTAR":0.00087614,"MEAN_MOTION_DOT":0.00041483,"MEAN_MOTION_DDOT":0},{"OBJECT_NAME":"JY1SAT (JO-97)","OBJECT_ID":"2018-099AX","EPOCH":"2026-04-05T16:23:16.496448","MEAN_MOTION":15.31410821,"ECCENTRICITY":0.0006845,"INCLINATION":97.4194,"RA_OF_ASC_NODE":158.3698,"ARG_OF_PERICENTER":157.9734,"MEAN_ANOMALY":202.1802,"EPHEMERIS_TYPE":0,"CLASSIFICATION_TYPE":"U","NORAD_CAT_ID":43803,"ELEMENT_SET_NO":999,"REV_AT_EPOCH":40252,"BSTAR":0.00069745,"MEAN_MOTION_DOT":0.00021129,"MEAN_MOTION_DDOT":0},{"OBJECT_NAME":"SUOMI-100","OBJECT_ID":"2018-099AY","EPOCH":"2026-04-05T16:36:25.849440","MEAN_MOTION":15.26824272,"ECCENTRICITY":0.0010901,"INCLINATION":97.4255,"RA_OF_ASC_NODE":156.4207,"ARG_OF_PERICENTER":169.0166,"MEAN_ANOMALY":191.1313,"EPHEMERIS_TYPE":0,"CLASSIFICATION_TYPE":"U","NORAD_CAT_ID":43804,"ELEMENT_SET_NO":999,"REV_AT_EPOCH":40235,"BSTAR":0.00057344,"MEAN_MOTION_DOT":0.00015082,"MEAN_MOTION_DDOT":0},{"OBJECT_NAME":"AL-FARABI 2","OBJECT_ID":"2018-099AZ","EPOCH":"2026-04-05T15:33:22.461696","MEAN_MOTION":15.80192723,"ECCENTRICITY":0.0003056,"INCLINATION":97.4023,"RA_OF_ASC_NODE":173.2044,"ARG_OF_PERICENTER":210.3693,"MEAN_ANOMALY":149.7398,"EPHEMERIS_TYPE":0,"CLASSIFICATION_TYPE":"U","NORAD_CAT_ID":43805,"ELEMENT_SET_NO":999,"REV_AT_EPOCH":40359,"BSTAR":0.0016152,"MEAN_MOTION_DOT":0.00311643,"MEAN_MOTION_DDOT":0},{"OBJECT_NAME":"CENTAURI-1","OBJECT_ID":"2018-099BD","EPOCH":"2026-04-05T20:43:44.005728","MEAN_MOTION":15.15631757,"ECCENTRICITY":0.0013519,"INCLINATION":97.4298,"RA_OF_ASC_NODE":149.148,"ARG_OF_PERICENTER":213.2902,"MEAN_ANOMALY":146.7482,"EPHEMERIS_TYPE":0,"CLASSIFICATION_TYPE":"U","NORAD_CAT_ID":43809,"ELEMENT_SET_NO":999,"REV_AT_EPOCH":40154,"BSTAR":0.00035876,"MEAN_MOTION_DOT":6.769e-5,"MEAN_MOTION_DDOT":0},{"OBJECT_NAME":"GLOBAL-2","OBJECT_ID":"2018-099BG","EPOCH":"2026-04-05T20:04:00.515712","MEAN_MOTION":15.08265168,"ECCENTRICITY":0.0007246,"INCLINATION":97.3641,"RA_OF_ASC_NODE":135.3511,"ARG_OF_PERICENTER":55.39,"MEAN_ANOMALY":304.8011,"EPHEMERIS_TYPE":0,"CLASSIFICATION_TYPE":"U","NORAD_CAT_ID":43812,"ELEMENT_SET_NO":999,"REV_AT_EPOCH":40100,"BSTAR":0.00027128,"MEAN_MOTION_DOT":4.146e-5,"MEAN_MOTION_DDOT":0}]
