SIRION PATHFINDER-2     
1 43759U 18099B   26095.68862446  .00007563  00000+0  42092-3 0  9991
2 43759  97.4329 146.4762 0008916 181.2614 178.8597 15.13890526401652
AISTECHSAT 2            
1 43768U 18099L   26095.70307884  .00006938  00000+0  37785-3 0  9992
2 43768  97.4369 145.3339 0005005 172.0984 188.0328 15.14721510401302
FOX-1CLIFF (AO-95)      
1 43770U 18099N   26095.61538022  .00014083  00000+0  56320-3 0  9991
2 43770  97.4449 156.1924 0007818 236.0283 124.0212 15.25181511402150
2018-099Q               
1 43772U 18099Q   26095.45025327  .00144676  00000+0  15270-2 0  9994
2 43772  97.4247 172.0861 0001148 180.8447 179.2810 15.63746231403226
RANGE-A                 
1 43773U 18099R   26095.63018896  .00005730  00000+0  32988-3 0  9991
2 43773  97.4043 140.3357 0009154 231.9344 128.1062 15.12776274401525
SNUSAT-2                
1 43782U 18099AA  26095.65008862  .00010697  00000+0  48826-3 0  9991
2 43782  97.4134 150.1815 0010660 181.6844 178.4358 15.20734203402009
SNUGLITE                
1 43784U 18099AC  26095.70314163  .00015817  00000+0  62409-3 0  9995
2 43784  97.3939 150.7553 0003499 158.5885 201.5500 15.25627060402260
ITASAT                  
1 43786U 18099AE  26095.67100705  .00008808  00000+0  43378-3 0  9994
2 43786  97.4106 148.6514 0011391 241.1476 118.8615 15.18145457401901
EAGLET-I                
1 43790U 18099AJ  26095.61753181  .00006179  00000+0  35917-3 0  9994
2 43790  97.4308 147.2089 0010092 231.1860 128.8471 15.12395461401362
ESEO                    
1 43792U 18099AL  26095.86717923  .00002877  00000+0  21210-3 0  9999
2 43792  97.4037 136.3329 0011400 215.6553 144.3913 15.04021845400938
THEA                    
1 43796U 18099AQ  26095.71942976  .00022993  00000+0  73035-3 0  9998
2 43796  97.4494 164.8256 0008285 173.5020 186.6331 15.32619652401587
ASTROCAST 0.1           
1 43798U 18099AS  26095.75954524  .00041483  00000+0  87614-3 0  9999
2 43798  97.4414 172.2489 0006445 123.7468 236.4395 15.45052425403232
JY1SAT (JO-97)          
1 43803U 18099AX  26095.68282982  .00021129  00000+0  69745-3 0  9990
2 43803  97.4194 158.3698 0006845 157.9734 202.1802 15.31410821402527
SUOMI-100               
1 43804U 18099AY  26095.69196585  .00015082  00000+0  57344-3 0  9998
2 43804  97.4255 156.4207 0010901 169.0166 191.1313 15.26824272402350
AL-FARABI 2             
1 43805U 18099AZ  26095.64817664  .00311643  00000+0  16152-2 0  9995
2 43805  97.4023 173.2044 0003056 210.3693 149.7398 15.80192723403596
CENTAURI-1              
1 43809U 18099BD  26095.86370377  .00006769  00000+0  35876-3 0  9993
2 43809  97.4298 149.1480 0013519 213.2902 146.7482 15.15631757401547
GLOBAL-2                
1 43812U 18099BG  26095.83611708  .00004146  00000+0  27128-3 0  9998
2 43812  97.3641 135.3511 0007246  55.3900 304.8011 15.08265168401004
